OBJECT_NAME,OBJECT_ID,EPOCH,MEAN_MOTION,ECCENTRICITY,INCLINATION,RA_OF_ASC_NODE,ARG_OF_PERICENTER,MEAN_ANOMALY,EPHEMERIS_TYPE,CLASSIFICATION_TYPE,NORAD_CAT_ID,ELEMENT_SET_NO,REV_AT_EPOCH,BSTAR,MEAN_MOTION_DOT,MEAN_MOTION_DDOT
SATELIOT_3,2024-149CN,2026-07-12T18:49:14.513664,14.98161521,.000532,97.6823,270.0724,15.1822,344.9560,0,U,60552,999,10391,.50220671E-4,.537E-5,0
BRO-15,2024-149CP,2026-07-12T23:49:20.057664,14.96221271,.0007923,97.6795,268.8846,12.0200,348.1209,0,U,60553,999,10386,.43745E-4,.436E-5,0
UM5-RIBAT,2024-149CQ,2026-07-13T04:50:41.218080,15.01213432,.0000914,97.6612,271.6497,6.4092,353.7144,0,U,60554,999,10409,.10892E-3,.1338E-4,0
UM5-EOSAT,2024-149CR,2026-07-12T18:14:31.085664,15.01719853,.00092011,97.6776,272.2083,42.2047,317.9884,0,U,60555,999,10405,.17505912E-3,.2218E-4,0
LASARSAT,2024-247Q,2026-07-12T23:54:51.800832,15.47948222,.00069769,44.9747,117.0092,149.4103,210.7196,0,U,62391,999,8731,.53150637E-3,.28123E-3,0
CROCUBE,2024-247T,2026-07-12T19:57:59.439744,15.50071349,.0007253,44.9714,114.8252,157.3362,202.7851,0,U,62394,999,8732,.49242E-3,.28068E-3,0
TEVEL2-4,2025-052D,2026-07-13T12:24:40.913280,15.35528230,.0003689,97.3877,90.9652,55.3920,304.7671,0,U,63213,999,7415,.33514E-3,.11498E-3,0
TEVEL2-5,2025-052E,2026-07-13T03:35:30.905664,15.35333367,.00037888,97.3876,90.5369,56.8499,303.3107,0,U,63214,999,7409,.34745321E-3,.1185E-3,0
TEVEL2-6,2025-052F,2026-07-12T16:57:08.952768,15.35286778,.00037818,97.3879,90.0772,60.8657,299.2965,0,U,63215,999,7402,.35290328E-3,.12019E-3,0
TEVEL2-1,2025-052H,2026-07-12T16:18:13.603968,15.34718554,.00044329,97.3853,89.6437,65.2904,294.8800,0,U,63217,999,7400,.3422388E-3,.11444E-3,0
TEVEL2-3,2025-052J,2026-07-12T16:09:05.966208,15.34780805,.00042079,97.3855,89.6625,66.7009,293.4677,0,U,63218,999,7400,.35526735E-3,.11907E-3,0
TEVEL2-2,2025-052K,2026-07-12T16:18:26.144928,15.34729067,.00044915,97.3850,89.6469,65.9197,294.2516,0,U,63219,999,7400,.34006669E-3,.11375E-3,0
TEVEL2-9,2025-052AD,2026-07-13T03:32:14.288640,15.32691499,.00078316,97.3915,89.4327,62.8126,297.3913,0,U,63237,999,7400,.33504592E-3,.10512E-3,0
TEVEL2-7,2025-052AE,2026-07-13T04:38:34.055808,15.32377628,.000788,97.3914,89.3836,62.2536,297.9504,0,U,63238,999,7400,.33165E-3,.10302E-3,0
TEVEL2-8,2025-052AF,2026-07-12T16:18:32.611968,15.32353925,.00079812,97.3914,88.8465,64.8281,295.3788,0,U,63239,999,7392,.37402212E-3,.11622E-3,0
FORESAIL-1 PRIME,2025-276DS,2026-07-13T03:38:54.599712,15.18928427,.00030419,97.4194,266.9496,49.5627,310.5873,0,U,66778,999,3434,.14455425E-3,.2951E-4,0
